$$SOE
2460721.500000000, A.D. 2025-Feb-15 00:00:00.0000, 4.583177832057395E+08, -1.736225729245785E+08, 1.929119538052216E+08,
2460728.500000000, A.D. 2025-Feb-22 00:00:00.0000, 4.581910385200644E+08, -1.656648628338597E+08, 1.912443101074943E+08,
2460735.500000000, A.D. 2025-Mar-01 00:00:00.0000, 4.579091617285318E+08, -1.576511228300989E+08, 1.895119095278079E+08,
2460742.500000000, A.D. 2025-Mar-08 00:00:00.0000, 4.574692241804487E+08, -1.495830239203533E+08, 1.877140856404513E+08,
2460749.500000000, A.D. 2025-Mar-15 00:00:00.0000, 4.568682118579459E+08, -1.414623128270091E+08, 1.858501581463423E+08,
2460756.500000000, A.D. 2025-Mar-22 00:00:00.0000, 4.561030197290550E+08, -1.332908172395167E+08, 1.839194331020179E+08,
2460763.500000000, A.D. 2025-Mar-29 00:00:00.0000, 4.551704473467697E+08, -1.250704537525936E+08, 1.819212028855959E+08,
2460770.500000000, A.D. 2025-Apr-05 00:00:00.0000, 4.540671960180637E+08, -1.168032353900459E+08, 1.798547461330109E+08,
2460777.500000000, A.D. 2025-Apr-12 00:00:00.0000, 4.527898656172464E+08, -1.084912786513355E+08, 1.777193278379950E+08,
2460784.500000000, A.D. 2025-Apr-19 00:00:00.0000, 4.513349508580596E+08, -1.001368110076439E+08, 1.755141995706432E+08,
2460791.500000000, A.D. 2025-Apr-26 00:00:00.0000, 4.496988372991277E+08, -9.174217910027945E+07, 1.732385997840930E+08,
2460798.500000000, A.D. 2025-May-03 00:00:00.0000, 4.478777972011657E+08, -8.330985767689088E+07, 1.708917542131320E+08,
2460805.500000000, A.D. 2025-May-10 00:00:00.0000, 4.458679852715011E+08, -7.484245931685866E+07, 1.684728763774298E+08,
2460812.500000000, A.D. 2025-May-17 00:00:00.0000, 4.436654343422989E+08, -6.634274505301183E+07, 1.659811681994938E+08,
2460819.500000000, A.D. 2025-May-24 00:00:00.0000, 4.412660511691275E+08, -5.781363601700202E+07, 1.634158207360959E+08,
2460826.500000000, A.D. 2025-May-31 00:00:00.0000, 4.386656127837085E+08, -4.925822587721030E+07, 1.607760150317956E+08,
2460833.500000000, A.D. 2025-Jun-07 00:00:00.0000, 4.358597630207407E+08, -4.067979295114020E+07, 1.580609232547032E+08,
2460840.500000000, A.D. 2025-Jun-14 00:00:00.0000, 4.328440068823225E+08, -3.208181275472851E+07, 1.552697103069842E+08,
2460847.500000000, A.D. 2025-Jun-21 00:00:00.0000, 4.296137039916897E+08, -2.346797436698978E+07, 1.524015355655624E+08,
2460854.500000000, A.D. 2025-Jun-28 00:00:00.0000, 4.261640643055739E+08, -1.484219896262381E+07, 1.494555546479707E+08,
2460861.500000000, A.D. 2025-Jul-05 00:00:00.0000, 4.224901446191115E+08, -6.208658483742870E+06, 1.464309215619775E+08,
2460868.500000000, A.D. 2025-Jul-12 00:00:00.0000, 4.185868447349079E+08, 2.428204603646718E+06, 1.433267913324360E+08,
2460875.500000000, A.D. 2025-Jul-19 00:00:00.0000, 4.144489035616386E+08, 1.106365573957957E+07, 1.401423230978603E+08,
2460882.500000000, A.D. 2025-Jul-26 00:00:00.0000, 4.100708954436886E+08, 1.969264466258046E+07, 1.368766837177456E+08,
2460889.500000000, A.D. 2025-Aug-02 00:00:00.0000, 4.054472268983724E+08, 2.830977960489768E+07, 1.335290519613251E+08,
2460896.500000000, A.D. 2025-Aug-09 00:00:00.0000, 4.005721339195459E+08, 3.690929907925989E+07, 1.300986233616939E+08,
2460903.500000000, A.D. 2025-Aug-16 00:00:00.0000, 3.954396800891118E+08, 4.548504098016708E+07, 1.265846158246383E+08,
2460910.500000000, A.D. 2025-Aug-23 00:00:00.0000, 3.900437559873937E+08, 5.403040878348937E+07, 1.229862760835877E+08,
2460917.500000000, A.D. 2025-Aug-30 00:00:00.0000, 3.843780804675933E+08, 6.253833530689197E+07, 1.193028871616786E+08,
2460924.500000000, A.D. 2025-Sep-06 00:00:00.0000, 3.784362026580631E+08, 7.100124476429361E+07, 1.155337772047642E+08,
2460931.500000000, A.D. 2025-Sep-13 00:00:00.0000, 3.722115033625320E+08, 7.941101034861775E+07, 1.116783298124969E+08,
2460938.500000000, A.D. 2025-Sep-20 00:00:00.0000, 3.656971995386719E+08, 8.775890539761782E+07, 1.077359956342353E+08,
2460945.500000000, A.D. 2025-Sep-27 00:00:00.0000, 3.588863533946251E+08, 9.603555094282734E+07, 1.037063056146732E+08,
2460952.500000000, A.D. 2025-Oct-04 00:00:00.0000, 3.517718846600297E+08, 1.042308598651707E+08, 9.958888637930244E+07,
2460959.500000000, A.D. 2025-Oct-11 00:00:00.0000, 3.443465863407443E+08, 1.123339763996821E+08, 9.538347801538830E+07,
2460966.500000000, A.D. 2025-Oct-18 00:00:00.0000, 3.366031450508467E+08, 1.203332104120768E+08, 9.108995453912924E+07,
2460973.500000000, A.D. 2025-Oct-25 00:00:00.0000, 3.285341670195046E+08, 1.282159661827525E+08, 8.670834742121992E+07,
2460980.500000000, A.D. 2025-Nov-01 00:00:00.0000, 3.201322109431903E+08, 1.359686654868839E+08, 8.223887260240334E+07,
2460987.500000000, A.D. 2025-Nov-08 00:00:00.0000, 3.113898290501986E+08, 1.435766647889760E+08, 7.768196148174536E+07,
2460994.500000000, A.D. 2025-Nov-15 00:00:00.0000, 3.022996180909435E+08, 1.510241664560932E+08, 7.303829640603133E+07,
2461001.500000000, A.D. 2025-Nov-22 00:00:00.0000, 2.928542824890499E+08, 1.582941243314332E+08, 6.830885124725164E+07,
2461008.500000000, A.D. 2025-Nov-29 00:00:00.0000, 2.830467116274943E+08, 1.653681451430113E+08, 6.349493783574006E+07,
2461015.500000000, A.D. 2025-Dec-06 00:00:00.0000, 2.728700714432471E+08, 1.722263862571838E+08, 5.859825915841958E+07,
2461022.500000000, A.D. 2025-Dec-13 00:00:00.0000, 2.623179135822969E+08, 1.788474474642006E+08, 5.362096976384716E+07,
2461029.500000000, A.D. 2025-Dec-20 00:00:00.0000, 2.513843088064546E+08, 1.852082594023216E+08, 4.856574391111448E+07,
2461036.500000000, A.D. 2025-Dec-27 00:00:00.0000, 2.400640071433351E+08, 1.912839734873228E+08, 4.343585253024211E+07,
2461043.500000000, A.D. 2026-Jan-03 00:00:00.0000, 2.283526272382970E+08, 1.970478559018158E+08, 3.823524977634424E+07,
2461050.500000000, A.D. 2026-Jan-10 00:00:00.0000, 2.162468792277621E+08, 2.024711892595424E+08, 3.296866968187973E+07,
2461057.500000000, A.D. 2026-Jan-17 00:00:00.0000, 2.037448257416541E+08, 2.075231875404710E+08, 2.764173322025995E+07,
2461064.500000000, A.D. 2026-Jan-24 00:00:00.0000, 1.908461854447685E+08, 2.121709317030804E+08, 2.226106575643936E+07,
2461071.500000000, A.D. 2026-Jan-31 00:00:00.0000, 1.775526831058939E+08, 2.163793353679339E+08, 1.683442432497700E+07,
2461078.500000000, A.D. 2026-Feb-07 00:00:00.0000, 1.638684493804597E+08, 2.201111522479462E+08, 1.137083340407130E+07,
2461085.500000000, A.D. 2026-Feb-14 00:00:00.0000, 1.498004721777917E+08, 2.233270396351899E+08, 5.880726794240549E+06,
2461092.500000000, A.D. 2026-Feb-21 00:00:00.0000, 1.353590992227554E+08, 2.259856955752808E+08, 3.760918652464449E+05,
2461099.500000000, A.D. 2026-Feb-28 00:00:00.0000, 1.205585864036711E+08, 2.280440905533945E+08, -5.129389142973840E+06,
2461106.500000000, A.D. 2026-Mar-07 00:00:00.0000, 1.054176805408876E+08, 2.294578135578979E+08, -1.062020838532595E+07,
2461113.500000000, A.D. 2026-Mar-14 00:00:00.0000, 8.996022348110710E+07, 2.301815532048503E+08, -1.607892282149822E+07,
2461120.500000000, A.D. 2026-Mar-21 00:00:00.0000, 7.421575522275643E+07, 2.301697392445198E+08, -2.148607854985572E+07,
2461127.500000000, A.D. 2026-Mar-28 00:00:00.0000, 5.822008022738277E+07, 2.293773646044083E+08, -2.682018432978278E+07,
2461134.500000000, A.D. 2026-Apr-04 00:00:00.0000, 4.201575181413131E+07, 2.277609991586952E+08, -3.205775208898482E+07,
2461141.500000000, A.D. 2026-Apr-11 00:00:00.0000, 2.565241997966875E+07, 2.252799953451034E+08, -3.717342346460853E+07,
2461148.500000000, A.D. 2026-Apr-18 00:00:00.0000, 9.186979437506475E+06, 2.218978690587954E+08, -4.214020082996939E+07,
2461155.500000000, A.D. 2026-Apr-25 00:00:00.0000, -7.316549471191254E+06, 2.175838169630768E+08, -4.692979806434284E+07,
2461162.500000000, A.D. 2026-May-02 00:00:00.0000, -2.378747117604952E+07, 2.123143050951831E+08, -5.151311980662356E+07,
2461169.500000000, A.D. 2026-May-09 00:00:00.0000, -4.014924754201760E+07, 2.060746364301168E+08, -5.586086781811801E+07,
2461176.500000000, A.D. 2026-May-16 00:00:00.0000, -5.632073859926796E+07, 1.988603816031001E+08, -5.994425973061332E+07,
2461183.500000000, A.D. 2026-May-23 00:00:00.0000, -7.221784101870616E+07, 1.906785433401420E+08, -6.373582995515790E+07,
2461190.500000000, A.D. 2026-May-30 00:00:00.0000, -8.775547131469898E+07, 1.815483248610474E+08, -6.721026712492630E+07,
2461197.500000000, A.D. 2026-Jun-06 00:00:00.0000, -1.028497920009751E+08, 1.715013885045547E+08, -7.034523073054495E+07,
2461204.500000000, A.D. 2026-Jun-13 00:00:00.0000, -1.174205344192979E+08, 1.605815337885118E+08, -7.312208375224824E+07,
2461211.500000000, A.D. 2026-Jun-20 00:00:00.0000, -1.313932509813475E+08, 1.488437823753783E+08, -7.552648020198193E+07,
2461218.500000000, A.D. 2026-Jun-27 00:00:00.0000, -1.447013277224629E+08, 1.363529170281148E+08, -7.754875846198562E+07,
2461225.500000000, A.D. 2026-Jul-04 00:00:00.0000, -1.572876079269610E+08, 1.231815801699461E+08, -7.918411092180559E+07,
2461232.500000000, A.D. 2026-Jul-11 00:00:00.0000, -1.691055201779395E+08, 1.094080823965409E+08, -8.043252410904355E+07,
2461239.500000000, A.D. 2026-Jul-18 00:00:00.0000, -1.801196602831903E+08, 9.511409297687337E+07, -8.129850710130817E+07,
2461246.500000000, A.D. 2026-Jul-25 00:00:00.0000, -1.903058349390521E+08, 8.038238103847601E+07, -8.179064537219501E+07,
2461253.500000000, A.D. 2026-Aug-01 00:00:00.0000, -1.996506255338209E+08, 6.529475120476657E+07, -8.192102952424531E+07,
2461260.500000000, A.D. 2026-Aug-08 00:00:00.0000, -2.081505659756725E+08, 4.993027831417219E+07, -8.170461263125393E+07,
2461267.500000000, A.D. 2026-Aug-15 00:00:00.0000, -2.158110461003954E+08, 3.436390170574099E+07, -8.115854691784814E+07,
2461274.500000000, A.D. 2026-Aug-22 00:00:00.0000, -2.226450546317693E+08, 1.866539811692639E+07, -8.030154214211692E+07,
2461281.500000000, A.D. 2026-Aug-29 00:00:00.0000, -2.286718656986706E+08, 2.898715326676093E+06, -7.915327716646321E+07,
2461288.500000000, A.D. 2026-Sep-05 00:00:00.0000, -2.339157492562050E+08, -1.287837666985266E+07, -7.773388525513028E+07,
$$EOE